#aV2021  7 30  0  0  0.00000000     288 DD+AD WGS84 FIT  NGA
## 2168 432000.00000000   300.00000000 59425 0.0000000000000
+   32     1  2  3  4  5  6  7  8  9 10 11 12 13 14 15 16 17
+         18 19 20 21 22 23 24 25 26 27 28 29 30 31 32  0  0
+          0  0  0  0  0  0  0  0  0  0  0  0  0  0  0  0  0
+          0  0  0  0  0  0  0  0  0  0  0  0  0  0  0  0  0
+          0  0  0  0  0  0  0  0  0  0  0  0  0  0  0  0  0
++         2  2  2  2  2  2  2  2  2  2  2  2  2  2  2  2  2
++         2  2  2  2  2  2  2  2  2  2  2  2  2  2  2  0  0
++         0  0  0  0  0  0  0  0  0  0  0  0  0  0  0  0  0
++         0  0  0  0  0  0  0  0  0  0  0  0  0  0  0  0  0
++         0  0  0  0  0  0  0  0  0  0  0  0  0  0  0  0  0
%c cc cc ccc ccc cccc cccc cccc cccc ccccc ccccc ccccc ccccc
%c cc cc ccc ccc cccc cccc cccc cccc ccccc ccccc ccccc ccccc
%f  0.0000000  0.000000000  0.00000000000  0.000000000000000
%f  0.0000000  0.000000000  0.00000000000  0.000000000000000
%i    0    0    0    0      0      0      0      0         0
%i    0    0    0    0      0      0      0      0         0
/*      NGA, ST. LOUIS,MO.                                  
/*   EPHEMERIS COMPUTED FROM 2 DAYS OF DATA                 
/*   EPOCHA v6 SMOOTHER                                     
/*   G2139 IERS2010 SATIGS SATAPC                           
*  2021  7 30  9 50  0.00000000
P  1  13663.550068 -22404.709500  -2901.900337    612.791471                    
V  1   3837.851701  -1404.971461  32225.559900     -0.114401                    
P  2 -18344.197218   7889.393598 -16895.650700   -623.044314                    
V  2  10003.257711 -20456.505610 -19601.173738     -0.025159                    
P  3  12653.725167 -12492.093430 -19787.044692   -236.872836                    
V  3  24734.989876   3301.352624  13907.837180     -0.125471                    
P  4   3880.350973 -20382.065297 -16539.689153   -203.247536                    
V  4   9974.095007  18620.440984 -20658.174950     -0.005704                    
P  5 -22797.793588   7082.036893  11657.331554    -49.507498                    
V  5 -14860.172377  -3137.632657 -26617.212973     -0.012216                    
P  6 -14202.624489  -5017.290057 -21824.258113     47.834945                    
V  6  15732.737839 -22889.163659  -4906.506454      0.059503                    
P  7   1845.755902 -21568.420860  15414.859237    214.016506                    
V  7  13075.371203 -14203.882584 -22454.147652      0.084315                    
P  8  11086.049680 -10987.686147  21436.368318    -30.702080                    
V  8  12563.137268  24220.308766   6213.630118     -0.014120                    
P  9  -6123.944459 -24728.407142  -7535.559281   -357.278546                    
V  9   6743.091663   7280.527804 -29637.952812     -0.012504                    
P 10  18934.118433  11759.442551  14768.770887   -172.285206                    
V 10 -18494.165318     89.739133  23557.868909     -0.076277                    
P 11 -19498.741571   5093.746177 -17314.455541     26.257082                    
V 11  12274.461657 -18289.387388 -19225.630346      0.068922                    
P 12 -13623.838065  11528.533294 -19877.656462    -75.774365                    
V 12 -24222.882655  -4962.123324  14029.476121     -0.053492                    
P 13 -14948.852249   2241.883287  21710.933036    164.493626                    
V 13  -8193.346168 -26629.675096  -2733.297086      0.051181                    
P 14 -18756.321159 -12490.145427  14091.526587     35.403321                    
V 14  18030.252370    125.864652  24055.137806     -0.087791                    
P 15 -10209.439785  12673.929494  20565.544772   -131.948585                    
V 15 -15158.329492 -22553.351866   6605.969537      0.026677                    
P 16  25903.264794     60.928287   6625.307545   -365.420861                    
V 16   8134.447197   3484.560590 -30248.512020     -0.062091                    
P 17 -12939.840863 -22360.042952  -5721.460809    481.614416                    
V 17   -865.297815  -8052.610751  31111.255048      0.058121                    
P 18   -487.725289  20393.814679  16950.314481    337.122866                    
V 18 -14093.116398  16407.391257 -20207.587997     -0.030679                    
P 19 -15797.334546 -16001.010603 -14531.703201     33.008077                    
V 19  -4407.573105 -17384.889464  24264.671771      0.049660                    
P 20 -26374.511183   1474.093441   -167.542237    519.920835                    
V 20    -47.567954  -3736.024469 -31438.264426     -0.002047                    
P 21  16927.531046 -19159.888364   6790.610420    134.312500                    
V 21  -1340.378182   8329.748807  30431.207758      0.022215                    
P 22  19360.717194 -10806.121223 -14296.456497   -550.830871                    
V 22  18644.569110   2593.874392  23200.887325      0.094576                    
P 23   7425.794436  14833.865095  20732.878392     77.637623                    
V 23 -26351.531901   -790.294465   9931.711703     -0.051493                    
P 24 -14968.256454  21507.549696   2449.802162    192.309062                    
V 24  -1650.977984  -5019.425629  31211.163857      0.127260                    
P 25  -1033.605413  15317.175387 -21937.094807    182.431952                    
V 25 -27126.398830  -2393.311309   -134.582632      0.065924                    
P 26  25848.230902   4645.843830  -4909.596066    116.691488                    
V 26  -6255.235749   2857.464019 -30314.725681      0.045046                    
P 27  16007.767578    544.852000  21074.624595   -170.710907                    
V 27  11005.861366  24725.965045  -8568.402460     -0.057497                    
P 28 -22306.279687 -10854.450957   9766.507063    528.898665                    
V 28  11875.644960    -94.867211  28813.339312     -0.067223                    
P 29   2893.619873  24747.194611  -9159.273154   -388.313516                    
V 29  -5920.678573 -10108.221793 -29394.072051     -0.059700                    
P 30  -8774.385199 -13965.895482  20848.873497   -456.605557                    
V 30  16426.110134 -20754.829733  -7250.919899     -0.042720                    
P 31  16066.400511   3301.269472 -21059.643051   -131.479767                    
V 31 -15286.758630  21615.201221  -7848.570193     -0.020906                    
P 32  15893.358408  19609.989695  -8428.634132     11.094744                    
V 32   2314.463555  10876.493531  29096.857870     -0.023784                    
EOF
